[
  {
    "OBJECT_NAME": "STARLINK-35031",
    "OBJECT_ID": "25192A",
    "EPOCH": "2025-11-11T07:41:13.933824",
    "MEAN_MOTION": 15.30229393,
    "ECCENTRICITY": 0.0002306,
    "INCLINATION": 53.1573,
    "RA_OF_ASC_NODE": 72.6725,
    "ARG_OF_PERICENTER": 79.6354,
    "MEAN_ANOMALY": 280.4906,
    "EPHEMERIS_TYPE": 0,
    "CLASSIFICATION_TYPE": "U",
    "NORAD_CAT_ID": 65404,
    "ELEMENT_SET_NO": 999,
    "REV_AT_EPOCH": 1111,
    "BSTAR": 0.0015977,
    "MEAN_MOTION_DOT": 0.00047306,
    "MEAN_MOTION_DDOT": 0.0,
    "TLE_LINE1": "1 65404U 25192A   25315.32030016  .00047306  00000+0  15977-2 0  9999",
    "TLE_LINE2": "2 65404  53.1573  72.6725 0002306  79.6354 280.4906 15.30229393 11119",
    "COMMENT": "Grouped by shell and plane from TLE"
  },
  {
    "OBJECT_NAME": "STARLINK-35036",
    "OBJECT_ID": "25192C",
    "EPOCH": "2025-11-10T14:51:44.943552",
    "MEAN_MOTION": 15.39611312,
    "ECCENTRICITY": 0.0001273,
    "INCLINATION": 53.1594,
    "RA_OF_ASC_NODE": 73.2686,
    "ARG_OF_PERICENTER": 55.4365,
    "MEAN_ANOMALY": 304.676,
    "EPHEMERIS_TYPE": 0,
    "CLASSIFICATION_TYPE": "U",
    "NORAD_CAT_ID": 65406,
    "ELEMENT_SET_NO": 999,
    "REV_AT_EPOCH": 1104,
    "BSTAR": 0.0018759,
    "MEAN_MOTION_DOT": 0.00075359,
    "MEAN_MOTION_DDOT": 0.0,
    "TLE_LINE1": "1 65406U 25192C   25314.61927018  .00075359  00000+0  18759-2 0  9999",
    "TLE_LINE2": "2 65406  53.1594  73.2686 0001273  55.4365 304.6760 15.39611312 11047",
    "COMMENT": "Grouped by shell and plane from TLE"
  },
  {
    "OBJECT_NAME": "STARLINK-35035",
    "OBJECT_ID": "25192D",
    "EPOCH": "2025-11-10T14:45:03.322656",
    "MEAN_MOTION": 15.39593496,
    "ECCENTRICITY": 0.0001462,
    "INCLINATION": 53.1561,
    "RA_OF_ASC_NODE": 73.2379,
    "ARG_OF_PERICENTER": 88.3972,
    "MEAN_ANOMALY": 271.7201,
    "EPHEMERIS_TYPE": 0,
    "CLASSIFICATION_TYPE": "U",
    "NORAD_CAT_ID": 65407,
    "ELEMENT_SET_NO": 999,
    "REV_AT_EPOCH": 1104,
    "BSTAR": 0.0016093,
    "MEAN_MOTION_DOT": 0.00064461,
    "MEAN_MOTION_DDOT": 0.0,
    "TLE_LINE1": "1 65407U 25192D   25314.61462179  .00064461  00000+0  16093-2 0  9993",
    "TLE_LINE2": "2 65407  53.1561  73.2379 0001462  88.3972 271.7201 15.39593496 11046",
    "COMMENT": "Grouped by shell and plane from TLE"
  },
  {
    "OBJECT_NAME": "STARLINK-34983",
    "OBJECT_ID": "25192H",
    "EPOCH": "2025-11-11T00:59:16.680192",
    "MEAN_MOTION": 15.39639955,
    "ECCENTRICITY": 0.0001284,
    "INCLINATION": 53.1544,
    "RA_OF_ASC_NODE": 70.9205,
    "ARG_OF_PERICENTER": 70.5134,
    "MEAN_ANOMALY": 289.601,
    "EPHEMERIS_TYPE": 0,
    "CLASSIFICATION_TYPE": "U",
    "NORAD_CAT_ID": 65411,
    "ELEMENT_SET_NO": 999,
    "REV_AT_EPOCH": 1111,
    "BSTAR": 0.0014104,
    "MEAN_MOTION_DOT": 0.00056469,
    "MEAN_MOTION_DDOT": 0.0,
    "TLE_LINE1": "1 65411U 25192H   25315.04116528  .00056469  00000+0  14104-2 0  9990",
    "TLE_LINE2": "2 65411  53.1544  70.9205 0001284  70.5134 289.6010 15.39639955 11114",
    "COMMENT": "Grouped by shell and plane from TLE"
  },
  {
    "OBJECT_NAME": "STARLINK-34992",
    "OBJECT_ID": "25192J",
    "EPOCH": "2025-11-10T17:05:12.226848",
    "MEAN_MOTION": 15.39657771,
    "ECCENTRICITY": 9.15e-05,
    "INCLINATION": 53.1585,
    "RA_OF_ASC_NODE": 72.4187,
    "ARG_OF_PERICENTER": 35.1385,
    "MEAN_ANOMALY": 324.968,
    "EPHEMERIS_TYPE": 0,
    "CLASSIFICATION_TYPE": "U",
    "NORAD_CAT_ID": 65412,
    "ELEMENT_SET_NO": 999,
    "REV_AT_EPOCH": 1106,
    "BSTAR": 0.0023286,
    "MEAN_MOTION_DOT": 0.00094014,
    "MEAN_MOTION_DDOT": 0.0,
    "TLE_LINE1": "1 65412U 25192J   25314.71194707  .00094014  00000+0  23286-2 0  9998",
    "TLE_LINE2": "2 65412  53.1585  72.4187 0000915  35.1385 324.9680 15.39657771 11067",
    "COMMENT": "Grouped by shell and plane from TLE"
  },
  {
    "OBJECT_NAME": "STARLINK-34411",
    "OBJECT_ID": "25192L",
    "EPOCH": "2025-11-11T00:39:13.400352",
    "MEAN_MOTION": 15.39646322,
    "ECCENTRICITY": 0.0001342,
    "INCLINATION": 53.1567,
    "RA_OF_ASC_NODE": 70.8325,
    "ARG_OF_PERICENTER": 63.729,
    "MEAN_ANOMALY": 296.3853,
    "EPHEMERIS_TYPE": 0,
    "CLASSIFICATION_TYPE": "U",
    "NORAD_CAT_ID": 65414,
    "ELEMENT_SET_NO": 999,
    "REV_AT_EPOCH": 1111,
    "BSTAR": 0.0015382000000000002,
    "MEAN_MOTION_DOT": 0.00061679,
    "MEAN_MOTION_DDOT": 0.0,
    "TLE_LINE1": "1 65414U 25192L   25315.02723843  .00061679  00000+0  15382-2 0  9993",
    "TLE_LINE2": "2 65414  53.1567  70.8325 0001342  63.7290 296.3853 15.39646322 11112",
    "COMMENT": "Grouped by shell and plane from TLE"
  },
  {
    "OBJECT_NAME": "STARLINK-34238",
    "OBJECT_ID": "25192M",
    "EPOCH": "2025-11-10T15:04:59.089152",
    "MEAN_MOTION": 15.39612246,
    "ECCENTRICITY": 0.0001496,
    "INCLINATION": 53.1586,
    "RA_OF_ASC_NODE": 72.6074,
    "ARG_OF_PERICENTER": 50.7003,
    "MEAN_ANOMALY": 309.4134,
    "EPHEMERIS_TYPE": 0,
    "CLASSIFICATION_TYPE": "U",
    "NORAD_CAT_ID": 65415,
    "ELEMENT_SET_NO": 999,
    "REV_AT_EPOCH": 1105,
    "BSTAR": 0.0017596,
    "MEAN_MOTION_DOT": 0.0007062,
    "MEAN_MOTION_DDOT": 0.0,
    "TLE_LINE1": "1 65415U 25192M   25314.62846168  .00070620  00000+0  17596-2 0  9990",
    "TLE_LINE2": "2 65415  53.1586  72.6074 0001496  50.7003 309.4134 15.39612246 11052",
    "COMMENT": "Grouped by shell and plane from TLE"
  },
  {
    "OBJECT_NAME": "STARLINK-34855",
    "OBJECT_ID": "25192N",
    "EPOCH": "2025-11-11T00:45:54.371520",
    "MEAN_MOTION": 15.39644631,
    "ECCENTRICITY": 0.0001321,
    "INCLINATION": 53.1571,
    "RA_OF_ASC_NODE": 70.8614,
    "ARG_OF_PERICENTER": 66.288,
    "MEAN_ANOMALY": 293.8264,
    "EPHEMERIS_TYPE": 0,
    "CLASSIFICATION_TYPE": "U",
    "NORAD_CAT_ID": 65416,
    "ELEMENT_SET_NO": 999,
    "REV_AT_EPOCH": 1111,
    "BSTAR": 0.0021847,
    "MEAN_MOTION_DOT": 0.00088073,
    "MEAN_MOTION_DDOT": 0.0,
    "TLE_LINE1": "1 65416U 25192N   25315.03187930  .00088073  00000+0  21847-2 0  9997",
    "TLE_LINE2": "2 65416  53.1571  70.8614 0001321  66.2880 293.8264 15.39644631 11119",
    "COMMENT": "Grouped by shell and plane from TLE"
  },
  {
    "OBJECT_NAME": "STARLINK-34255",
    "OBJECT_ID": "25192P",
    "EPOCH": "2025-11-10T14:58:17.777568",
    "MEAN_MOTION": 15.39612656,
    "ECCENTRICITY": 0.0001329,
    "INCLINATION": 53.1577,
    "RA_OF_ASC_NODE": 72.5777,
    "ARG_OF_PERICENTER": 57.5616,
    "MEAN_ANOMALY": 302.5518,
    "EPHEMERIS_TYPE": 0,
    "CLASSIFICATION_TYPE": "U",
    "NORAD_CAT_ID": 65417,
    "ELEMENT_SET_NO": 999,
    "REV_AT_EPOCH": 1105,
    "BSTAR": 0.0014871,
    "MEAN_MOTION_DOT": 0.00059533,
    "MEAN_MOTION_DDOT": 0.0,
    "TLE_LINE1": "1 65417U 25192P   25314.62381687  .00059533  00000+0  14871-2 0  9995",
    "TLE_LINE2": "2 65417  53.1577  72.5777 0001329  57.5616 302.5518 15.39612656 11058",
    "COMMENT": "Grouped by shell and plane from TLE"
  },
  {
    "OBJECT_NAME": "STARLINK-34997",
    "OBJECT_ID": "25192Q",
    "EPOCH": "2025-11-10T14:44:35.465568",
    "MEAN_MOTION": 15.39638981,
    "ECCENTRICITY": 0.0001193,
    "INCLINATION": 53.1575,
    "RA_OF_ASC_NODE": 73.2349,
    "ARG_OF_PERICENTER": 78.5668,
    "MEAN_ANOMALY": 281.5471,
    "EPHEMERIS_TYPE": 0,
    "CLASSIFICATION_TYPE": "U",
    "NORAD_CAT_ID": 65418,
    "ELEMENT_SET_NO": 999,
    "REV_AT_EPOCH": 1104,
    "BSTAR": 0.001444,
    "MEAN_MOTION_DOT": 0.00057835,
    "MEAN_MOTION_DDOT": 0.0,
    "TLE_LINE1": "1 65418U 25192Q   25314.61429937  .00057835  00000+0  14440-2 0  9991",
    "TLE_LINE2": "2 65418  53.1575  73.2349 0001193  78.5668 281.5471 15.39638981 11041",
    "COMMENT": "Grouped by shell and plane from TLE"
  },
  {
    "OBJECT_NAME": "STARLINK-35074",
    "OBJECT_ID": "25192U",
    "EPOCH": "2025-11-10T14:51:08.093088",
    "MEAN_MOTION": 15.39631952,
    "ECCENTRICITY": 0.0001622,
    "INCLINATION": 53.1597,
    "RA_OF_ASC_NODE": 72.5447,
    "ARG_OF_PERICENTER": 94.2008,
    "MEAN_ANOMALY": 265.9182,
    "EPHEMERIS_TYPE": 0,
    "CLASSIFICATION_TYPE": "U",
    "NORAD_CAT_ID": 65422,
    "ELEMENT_SET_NO": 999,
    "REV_AT_EPOCH": 1105,
    "BSTAR": 0.0021442,
    "MEAN_MOTION_DOT": 0.00086377,
    "MEAN_MOTION_DDOT": 0.0,
    "TLE_LINE1": "1 65422U 25192U   25314.61884367  .00086377  00000+0  21442-2 0  9991",
    "TLE_LINE2": "2 65422  53.1597  72.5447 0001622  94.2008 265.9182 15.39631952 11058",
    "COMMENT": "Grouped by shell and plane from TLE"
  },
  {
    "OBJECT_NAME": "STARLINK-35004",
    "OBJECT_ID": "25192AA",
    "EPOCH": "2025-11-10T15:04:30.512352",
    "MEAN_MOTION": 15.39620865,
    "ECCENTRICITY": 9.59e-05,
    "INCLINATION": 53.1596,
    "RA_OF_ASC_NODE": 72.602,
    "ARG_OF_PERICENTER": 45.7338,
    "MEAN_ANOMALY": 314.3745,
    "EPHEMERIS_TYPE": 0,
    "CLASSIFICATION_TYPE": "U",
    "NORAD_CAT_ID": 65428,
    "ELEMENT_SET_NO": 999,
    "REV_AT_EPOCH": 1105,
    "BSTAR": 0.0023319,
    "MEAN_MOTION_DOT": 0.00094036,
    "MEAN_MOTION_DDOT": 0.0,
    "TLE_LINE1": "1 65428U 25192AA  25314.62813093  .00094036  00000+0  23319-2 0  9992",
    "TLE_LINE2": "2 65428  53.1596  72.6020 0000959  45.7338 314.3745 15.39620865 11055",
    "COMMENT": "Grouped by shell and plane from TLE"
  },
  {
    "OBJECT_NAME": "STARLINK-35014",
    "OBJECT_ID": "25192AB",
    "EPOCH": "2025-11-11T00:32:03.714144",
    "MEAN_MOTION": 15.39629599,
    "ECCENTRICITY": 0.0002251,
    "INCLINATION": 53.1585,
    "RA_OF_ASC_NODE": 70.7977,
    "ARG_OF_PERICENTER": 78.5408,
    "MEAN_ANOMALY": 281.585,
    "EPHEMERIS_TYPE": 0,
    "CLASSIFICATION_TYPE": "U",
    "NORAD_CAT_ID": 65429,
    "ELEMENT_SET_NO": 999,
    "REV_AT_EPOCH": 1111,
    "BSTAR": 0.0016563,
    "MEAN_MOTION_DOT": 0.00066452,
    "MEAN_MOTION_DDOT": 0.0,
    "TLE_LINE1": "1 65429U 25192AB  25315.02226521  .00066452  00000+0  16563-2 0  9996",
    "TLE_LINE2": "2 65429  53.1585  70.7977 0002251  78.5408 281.5850 15.39629599 11115",
    "COMMENT": "Grouped by shell and plane from TLE"
  }
]